#aV2009 11 24  0  0   .00000000      96 DD+AD WGS84 FIT  NGA
## 1559 172800.00000000   900.00000000 55159  .0000000000000
+   32     1  2  3  4  5  6  7  8  9 10 11 12 13 14 15 16 17
+         18 19 20 21 22 23 24 25 26 27 28 29 30 31 32  0  0
+          0  0  0  0  0  0  0  0  0  0  0  0  0  0  0  0  0
+          0  0  0  0  0  0  0  0  0  0  0  0  0  0  0  0  0
+          0  0  0  0  0  0  0  0  0  0  0  0  0  0  0  0  0
++         0  0  0  0  0  0  0  0  0  0  0  0  0  0  0  0  0
++         0  0  0  0  0  0  0  0  0  0  0  0  0  0  0  0  0
++         0  0  0  0  0  0  0  0  0  0  0  0  0  0  0  0  0
++         0  0  0  0  0  0  0  0  0  0  0  0  0  0  0  0  0
++         0  0  0  0  0  0  0  0  0  0  0  0  0  0  0  0  0
%c cc cc ccc ccc cccc cccc cccc cccc ccccc ccccc ccccc ccccc
%c cc cc ccc ccc cccc cccc cccc cccc ccccc ccccc ccccc ccccc
%f  0.0000000  0.000000000  0.00000000000  0.000000000000000
%f  0.0000000  0.000000000  0.00000000000  0.000000000000000
%i    0    0    0    0      0      0      0      0         0
%i    0    0    0    0      0      0      0      0         0
/*      NGA, ST. LOUIS,MO.                                  
/*   EPHEMERIS COMPUTED FROM  3 DAYS OF DATA                
/* CCCCCCCCCCCCCCCCCCCCCCCCCCCCCCCCCCCCCCCCCCCCCCCCCCCCCCCCC
/* CCCCCCCCCCCCCCCCCCCCCCCCCCCCCCCCCCCCCCCCCCCCCCCCCCCCCCCCC
*  2009 11 24  9 45   .00000000                                                 
P  1  17318.384077  17549.637380   9909.572329    -66.923613                    
V  1   3919.515528  12311.017079 -28258.805317      -.023570                    
P  2 -12417.797457  13568.165366  18941.236943    195.381623                    
V  2 -24363.016925  -2336.367698 -14676.688608       .045477                    
P  3   8996.907054 -24629.266496  -3150.660730    478.792100                    
V  3   5300.785282  -1535.927978  30848.770678       .051054                    
P  4 -23123.021854   7251.538288  11126.226982   -374.290783                    
V  4 -14164.842548  -3285.361960 -26543.919745      -.183137                    
P  5   -896.980390  21409.015289  15628.263067    -39.173254                    
V  5 -11189.332296 -16581.113881  22129.801721       .063209                    
P  6  13095.271398 -23044.191835    250.201786    262.469886                    
V  6   3230.071123   1932.882303  31204.930156       .013439                    
P  7 -23678.749792  -7469.722940   9637.149249      7.161457                    
V  7  12261.587053  -1717.639698  28609.464539      -.006985                    
P  8 -26692.092885   -843.127057  -2800.638571       .099566                    
V  8  -3302.847306  -1734.270537  31805.648560       .004829                    
P  9   7867.493630  14488.111397 -21495.530939     90.237566                    
V  9 -25714.324438    434.343090  -9364.101961       .022069                    
P 10  -4720.479663  18737.872820  17897.992404    -29.009579                    
V 10 -12126.617392 -19882.659428  17793.066975      -.007737                    
P 11 -12299.650460 -13731.937366 -19460.566077    -30.814216                    
V 11  23705.029065  -6110.385285 -10434.045960      -.019099                    
P 12  10636.900074  24265.651765  -2654.598475   -185.729292                    
V 12  -3747.232829  -1901.420995 -31611.984330       .052465                    
P 13 -13298.446933  -6076.964651  22049.804160    306.367041                    
V 13  16270.447795 -23044.171960   3427.077201       .001181                    
P 14  19122.358223 -10369.233024 -15012.811369    -20.515126                    
V 14  -9617.940501  16817.436948 -23769.145219       .047546                    
P 15  -5096.498480  23559.846171 -11024.755636   -319.629041                    
V 15  -9551.407607  10689.837143  27270.973874       .006659                    
P 16   7304.454138 -15909.823437  19943.698490    -11.961729                    
V 16  12365.814495  22070.893404  13349.841332      -.042189                    
P 17 -19238.459099  10991.361173 -14421.316464    105.363860                    
V 17   8198.261181 -16769.190322 -23796.484935       .036222                    
P 18  18217.795441  12862.761141 -14446.223722     29.873389                    
V 18   6213.789835  17785.120899  22894.236890       .027497                    
P 19   5163.701386 -22437.762729 -12954.560620      -.353146                    
V 19  11909.718685 -11882.671717  25528.522224      -.020085                    
P 20 -14080.150646 -22496.181249   1527.977736     66.923243                    
V 20   1949.127941  -3516.642505 -31167.863762      -.008550                    
P 21  25878.272990   5281.377112   5372.233311    -23.330690                    
V 21  -6509.687838   2673.103608  29760.593500      -.023772                    
P 22  16641.141266   -342.403239 -20546.760281    185.560871                    
V 22  10895.720645  24214.193021   8278.414087      -.009841                    
P 23  -5061.415265 -17095.499133  19559.688108    385.548867                    
V 23  14468.814260 -20390.302592 -14352.868535      -.006288                    
P 24  15778.556022  13317.360605  16676.615702    239.194847                    
V 24 -21203.518015    329.329305  20176.940677       .032141                    
P 25 -19179.889925  -9707.609070  15820.112249     30.733740                    
V 25  19379.713128  -2867.692521  22405.309364       .142494                    
P 26  17715.633394  -1889.547208 -20393.146270      1.844242                    
V 26 -13850.945005  20192.738165 -13826.458616      -.022001                    
P 27   4030.076840  14322.243673 -21319.551748    102.539721                    
V 27 -28664.607588    965.318772  -4567.763045       .032902                    
P 28 -16843.609308  -3215.740777 -19920.594977    -25.205900                    
V 28 -10699.628871 -23918.655290  12321.367237       .002029                    
P 29  11838.465517   9744.139213  21777.324665     76.734864                    
V 29 -15304.942998  22779.068004  -1839.750814       .029029                    
P 30  17180.224737  18709.663504   7474.249380    195.874401                    
V 30   2598.941877  10078.093895 -29616.381953       .031596                    
P 31  21276.637287  -8568.520669  13730.508922    -60.371278                    
V 31  16924.068405   2284.481687 -25050.853371       .008946                    
P 32  -7016.582191 -25225.978649  -4960.603075    151.652955                    
V 32   4955.813583   5188.721845 -30749.151842      -.076442                    
EOF
